[{"OBJECT_NAME":"STARLINK-1411","OBJECT_ID":"2020-035BB","EPOCH":"2026-03-09T22:47:07.657152","MEAN_MOTION":15.62165169,"ECCENTRICITY":0.00051821,"INCLINATION":53.045,"RA_OF_ASC_NODE":340.1671,"ARG_OF_PERICENTER":132.4601,"MEAN_ANOMALY":227.6851,"EPHEMERIS_TYPE":0,"CLASSIFICATION_TYPE":"U","NORAD_CAT_ID":45706,"ELEMENT_SET_NO":999,"REV_AT_EPOCH":31996,"BSTAR":0.0011824976,"MEAN_MOTION_DOT":0.0010674,"MEAN_MOTION_DDOT":0},{"OBJECT_NAME":"HAWK-3B","OBJECT_ID":"2021-059BE","EPOCH":"2026-03-09T11:39:39.463488","MEAN_MOTION":15.61552399,"ECCENTRICITY":0.0005147,"INCLINATION":97.6723,"RA_OF_ASC_NODE":256.3511,"ARG_OF_PERICENTER":338.9572,"MEAN_ANOMALY":21.1472,"EPHEMERIS_TYPE":0,"CLASSIFICATION_TYPE":"U","NORAD_CAT_ID":48931,"ELEMENT_SET_NO":999,"REV_AT_EPOCH":26225,"BSTAR":0.00046889102,"MEAN_MOTION_DOT":0.00040225,"MEAN_MOTION_DDOT":0}]
